{
  "links" : {
    "next" : "https://api.nasa.gov/neo/rest/v1/feed?start_date=2011-06-23&end_date=2011-06-23&detailed=true&api_key=t0TVs3DtDT2H8Oy2Zy8m2eVrNsAVKAexjcZXUckd",
    "prev" : "https://api.nasa.gov/neo/rest/v1/feed?start_date=2011-06-21&end_date=2011-06-21&detailed=true&api_key=t0TVs3DtDT2H8Oy2Zy8m2eVrNsAVKAexjcZXUckd",
    "self" : "https://api.nasa.gov/neo/rest/v1/feed?start_date=2011-06-22&end_date=2011-06-22&detailed=true&api_key=t0TVs3DtDT2H8Oy2Zy8m2eVrNsAVKAexjcZXUckd"
  },
  "element_count" : 10,
  "near_earth_objects" : {
    "2011-06-22" : [ {
      "links" : {
        "self" : "https://api.nasa.gov/neo/rest/v1/neo/3553586?api_key=t0TVs3DtDT2H8Oy2Zy8m2eVrNsAVKAexjcZXUckd"
      },
      "neo_reference_id" : "3553586",
      "name" : "(2010 XO56)",
      "nasa_jpl_url" : "http://ssd.jpl.nasa.gov/sbdb.cgi?sstr=3553586",
      "absolute_magnitude_h" : 20.1,
      "estimated_diameter" : {
        "kilometers" : {
          "estimated_diameter_min" : 0.2538370294,
          "estimated_diameter_max" : 0.5675968529
        },
        "meters" : {
          "estimated_diameter_min" : 253.8370293645,
          "estimated_diameter_max" : 567.5968528656
        },
        "miles" : {
          "estimated_diameter_min" : 0.1577269688,
          "estimated_diameter_max" : 0.3526882241
        },
        "feet" : {
          "estimated_diameter_min" : 832.7986794202,
          "estimated_diameter_max" : 1862.1944587557
        }
      },
      "is_potentially_hazardous_asteroid" : false,
      "close_approach_data" : [ {
        "close_approach_date" : "2011-06-22",
        "epoch_date_close_approach" : 1308726000000,
        "relative_velocity" : {
          "kilometers_per_second" : "19.7183684393",
          "kilometers_per_hour" : "70986.126381512",
          "miles_per_hour" : "44108.0183618901"
        },
        "miss_distance" : {
          "astronomical" : "0.1801777267",
          "lunar" : "70.0891418457",
          "kilometers" : "26954206",
          "miles" : "16748567"
        },
        "orbiting_body" : "Earth"
      } ],
      "orbital_data" : {
        "orbit_id" : "25",
        "orbit_determination_date" : "2017-07-22 06:19:37",
        "orbit_uncertainty" : "1",
        "minimum_orbit_intersection" : ".084278",
        "jupiter_tisserand_invariant" : "5.358",
        "epoch_osculation" : "2458000.5",
        "eccentricity" : ".1116198162604516",
        "semi_major_axis" : "1.116879370937557",
        "inclination" : "40.57497959760938",
        "ascending_node_longitude" : "272.8302980545877",
        "orbital_period" : "431.1295899893823",
        "perihelion_distance" : ".9922135007684183",
        "perihelion_argument" : "252.8003837301604",
        "aphelion_distance" : "1.241545241106696",
        "perihelion_time" : "2458202.638459944190",
        "mean_anomaly" : "191.2112012963419",
        "mean_motion" : ".8350157547962922",
        "equinox" : "J2000"
      }
    }, {
      "links" : {
        "self" : "https://api.nasa.gov/neo/rest/v1/neo/3671135?api_key=t0TVs3DtDT2H8Oy2Zy8m2eVrNsAVKAexjcZXUckd"
      },
      "neo_reference_id" : "3671135",
      "name" : "(2014 JG78)",
      "nasa_jpl_url" : "http://ssd.jpl.nasa.gov/sbdb.cgi?sstr=3671135",
      "absolute_magnitude_h" : 19.6,
      "estimated_diameter" : {
        "kilometers" : {
          "estimated_diameter_min" : 0.3195618867,
          "estimated_diameter_max" : 0.7145621017
        },
        "meters" : {
          "estimated_diameter_min" : 319.5618867213,
          "estimated_diameter_max" : 714.5621017269
        },
        "miles" : {
          "estimated_diameter_min" : 0.1985664891,
          "estimated_diameter_max" : 0.4440081677
        },
        "feet" : {
          "estimated_diameter_min" : 1048.4314204307,
          "estimated_diameter_max" : 2344.3639258298
        }
      },
      "is_potentially_hazardous_asteroid" : false,
      "close_approach_data" : [ {
        "close_approach_date" : "2011-06-22",
        "epoch_date_close_approach" : 1308726000000,
        "relative_velocity" : {
          "kilometers_per_second" : "23.4774885004",
          "kilometers_per_hour" : "84518.9586013187",
          "miles_per_hour" : "52516.7940264694"
        },
        "miss_distance" : {
          "astronomical" : "0.3649440389",
          "lunar" : "141.9632263184",
          "kilometers" : "54594852",
          "miles" : "33923668"
        },
        "orbiting_body" : "Earth"
      } ],
      "orbital_data" : {
        "orbit_id" : "40",
        "orbit_determination_date" : "2017-06-04 06:16:52",
        "orbit_uncertainty" : "1",
        "minimum_orbit_intersection" : ".272213",
        "jupiter_tisserand_invariant" : "4.724",
        "epoch_osculation" : "2458000.5",
        "eccentricity" : ".5634410734978924",
        "semi_major_axis" : "1.323532179970776",
        "inclination" : "17.92775064011703",
        "ascending_node_longitude" : "178.9719507770034",
        "orbital_period" : "556.1605558442809",
        "perihelion_distance" : ".5777997876790363",
        "perihelion_argument" : "198.1459691510273",
        "aphelion_distance" : "2.069264572262516",
        "perihelion_time" : "2458009.402634514719",
        "mean_anomaly" : "354.2373683433312",
        "mean_motion" : ".6472950953048102",
        "equinox" : "J2000"
      }
    }, {
      "links" : {
        "self" : "https://api.nasa.gov/neo/rest/v1/neo/3736506?api_key=t0TVs3DtDT2H8Oy2Zy8m2eVrNsAVKAexjcZXUckd"
      },
      "neo_reference_id" : "3736506",
      "name" : "(2015 XP261)",
      "nasa_jpl_url" : "http://ssd.jpl.nasa.gov/sbdb.cgi?sstr=3736506",
      "absolute_magnitude_h" : 21.8,
      "estimated_diameter" : {
        "kilometers" : {
          "estimated_diameter_min" : 0.1160259082,
          "estimated_diameter_max" : 0.2594418179
        },
        "meters" : {
          "estimated_diameter_min" : 116.0259082094,
          "estimated_diameter_max" : 259.4418179074
        },
        "miles" : {
          "estimated_diameter_min" : 0.0720951346,
          "estimated_diameter_max" : 0.1612096218
        },
        "feet" : {
          "estimated_diameter_min" : 380.6624406898,
          "estimated_diameter_max" : 851.1870938635
        }
      },
      "is_potentially_hazardous_asteroid" : false,
      "close_approach_data" : [ {
        "close_approach_date" : "2011-06-22",
        "epoch_date_close_approach" : 1308726000000,
        "relative_velocity" : {
          "kilometers_per_second" : "9.5597841959",
          "kilometers_per_hour" : "34415.2231051905",
          "miles_per_hour" : "21384.281267778"
        },
        "miss_distance" : {
          "astronomical" : "0.4314824272",
          "lunar" : "167.8466644287",
          "kilometers" : "64548852",
          "miles" : "40108800"
        },
        "orbiting_body" : "Earth"
      } ],
      "orbital_data" : {
        "orbit_id" : "4",
        "orbit_determination_date" : "2017-04-06 08:29:56",
        "orbit_uncertainty" : "7",
        "minimum_orbit_intersection" : ".228751",
        "jupiter_tisserand_invariant" : "4.283",
        "epoch_osculation" : "2458000.5",
        "eccentricity" : ".3431630783397817",
        "semi_major_axis" : "1.574990495531881",
        "inclination" : "18.58637696842202",
        "ascending_node_longitude" : "258.5023215135102",
        "orbital_period" : "721.9636515813077",
        "perihelion_distance" : "1.034511908729262",
        "perihelion_argument" : "86.03572732684101",
        "aphelion_distance" : "2.115469082334499",
        "perihelion_time" : "2457998.388319674374",
        "mean_anomaly" : "1.052968408534685",
        "mean_motion" : ".4986400620190458",
        "equinox" : "J2000"
      }
    } ]
  }
}